Id,Name,Address Line 1,City,State,Zip,Tel,Payer Id
141,AARP HEALTH CARE OPTIONS,PO BOX 740819,ALTLANTA,GA,30374-0819,800-227-7789,87726
244,AARP Health Care Options 2,PO BOX 740819,ATLANTA,GA,303740819,877-842-3210,EN826
702,AARP MEDICARE ADVANTAGE PPO,P.O. BOX 31362,SALT LAKE CITY,UT,84131,877-842-3210,87726
197,AARP MEDICARE COMPLETE 2,PO BOX 31362,SALT LAKE CITY,UT,84131-0295,877-842-3210,87726
2,AARP MEDICARE HMO,PO BOX 31362,Salt Lake City,UT,84131-0362,800-711-6088,87726
546,AARP Medicare Supplement,P O BOX 740819,ATLANTA,GA,30374-0819,800-523-5800,36273
214,AARP Medicare Supplement 2,P O BOX 740189,ATLANTA,GA,30374-0819,800-523-5800,36273
328,Access Community Harmony,1240 E DIEHL RD,NAPERVILLE,IL,60563-4802,,SPRNT
610,ACCESS COMMUNITY HEALTH NETWORK,600 W FULTON ST,CHICAGO,IL,60661-1262,312-526-2812,ACCOM
559,ACM,535 Griswold st,Detroit,MI,48226,877-331-3134,J1236
841,"Acuity Group of Mississippi, LLC",PO BOX 21515,Eagan,MN,55121,888-330-7292,41205
740,Administrative Concepts Inc,PO BOX 4000,COLLEGEVILLE,PA,19426-9000,800-290-3607,22384
164,"Administrative Concepts, Inc",994 Old Eagle School Rd,Wayne,PA,19087-1802,888-293-9229,22384
165,"Administrative Concepts, Inc 2",994 Old Eagle School Rd,Wayne,PA,19087-1802,888-293-9229,22384
208,Administrative District Council 1,,,IL,,,SPRNT
664,ADVOCATE AETNA MEDICARE ADVANTAGE,PO BOX 0589,MT PROSPECT,IL,60056-0589,847-298-6000,60054
562,Advocate Blue Advantage HMO,PO BOX 0430,MT PROSPECT,IL,60056-0443,847-298-6000,65093
376,ADVOCATE BLUE CARE DIRECT,PO BOX 0569,MT PROSPECT,IL,60056-0405,847-298-6000,65093
385,ADVOCATE Health Partners,PO BOX 211286,EAGAN,MN,55121-2786,847-298-6000,65093
279,ADVOCATE ILLINOIS MASONIC PHY PART,PO BOX 0503,MT PROSPECT,IL,60056,847-298-6000,65093
260,ADVOCATE Physician PARTNERS,PO BOX 0443,MOUNT PROSPECT,IL,60056-0547,847-298-6000,65093
203,ADVOCATE TRINITY HMO,PO BOX 0377,MT PROSPECT,IL,600560503,847-298-6000,65093
706,Aetna,P.O. BOX 981543,EL PASO,TX,799981543,866-299-2900,60054
224,AETNA MEDICARE PPO,P.O. BOX 981106,EL PASO,TX,799981106,888-632-3862,60054
849,AETNA Better Health Inc MMAI MMP 2,PO BOX 982970,El Paso,TX,79998-2970,866-600-2139,26337
480,AETNA BETTER HEALTH INC MMAI/MMP,PO BOX 982970,El Paso,TX,79998-2970,866-600-2139,68024
465,AETNA BETTER HEALTH OF ILLINOIS,PO BOX 982970,El Passo,TX,79998-2970,866-329-4701,68024
826,Aetna Choice POS,P.O. BOX 14079,Lexington,KY,40512-4079,800-435-7324,60054
827,Aetna Choice POS 2,PO BOX 14079,Lexington,KY,40512-4079,800-435-7324,60054
226,AETNA GLOBAL PPO,P.O. BOX 30259,TAMPA,FL,33630-0000,800-414-0596,60054
56,AETNA HMO,P.O. BOX 981106,EL PASO,TX,799981106,888-632-3862,60054
511,AETNA MEDICARE HMO,P.O. BOX 981106,EL PASO,TX,799981106,888-632-3862,60054
817,Aetna Medicare PPO,P.O. BOX 981107,EL PASO,TX,799981106,888-632-3862,60054
259,AETNA MEDICARE PPO,PO BOX 981106,El Paso,TX,799981106,888-632-3862,60054
319,Aetna Medicare PPO 2,PO BOX 981106,El Paso,TX,799981106,888-632-3862,60054
824,Aetna National Advantage Plan,P.O. BOX 14079,Lexington,KY,40512-4079,800-435-7324,60054
825,Aetna National Advantage Plan 2,PO BOX 14079,Lexington,KY,40512-4079,800-435-7324,60054
249,AETNA Open Access,PO BOX 981106,El Paso,TX,799981106,888-632-3862,60054
723,Aetna Open Access Managed Care,P.O. BOX 14079,Lexington,KY,40512-4079,888-632-3862,60054
802,Aetna Open Access Managed Choice2,PO BOX 14079,Lexington,KY,40512-4079,888-632-3862,60054
728,Aetna Open Choice PPO,P.O. BOX 981543,EL PASO,TX,79998-1543,888-238-6277,60054
603,Aetna POS,P.O. BOX 981106,EL PASO,TX,799981106,888-632-3862,60054
147,Aetna POS,P.O. BOX 981107,EL PASO,TX,799981107,888-632-3862,60054
713,AETNA POS 2,PO BOX 981106,EL PASO,TX,799981106,888-632-3862,60054
4,AETNA PPO,P.O. BOX 981107,EL PASO,TX,799981106,888-632-3862,60054
122,Aetna PPO 2,PO BOX 981106,El Paso,TX,799981106,888-632-3862,60054
780,AETNA PPO 2,PO BOX 981543,EL PASO,TX,799981543,888-632-3862,60054
201,AETNA SELECT OPEN ACCESS,P.O. BOX 981105,EL PASO,TX,79998110,888-632-3862,60054
844,AETNA SELECT OPEN ACCESS 2,PO BOX 981105,EL PASO,TX,799981105,888-632-3862,60054
580,Aetna Senior Supplemental Insurance,P.O. BOX 14770,Lexington,KY,40512-4770,800-264-4000,62118
858,Aetna Student Services,P.O. BOX 14101,Lexington,KY,60054,800-783-7447,60054
125,Alicare,PO BOX 5442,White Plains,NY,106025442,800-471-8408,13550
614,All Savers Ins 2,PO BOX 31375,SALT LAKE CITY,UT,841310375,800-291-2634,81400
323,All Savers Insurance,PO BOX 31375,SALT LAKE CITY,UT,841310375,800-291-2634,81400
324,All Savers Insurance 2,PO BOX 31375,Salt Lake City,UT,841310375,800-291-2634,81400
604,Allianz Global Assistance,P.O. Box 277,Waterloo,,n2j4a9,,
693,Allied Benefit Systems Inc,PO BOX 909786-60690,CHICAGO,IL,606909786,888-292-0272,37308
694,Allied Benefit Systems Inc 2,PO BOX 909786-60690,CHICAGO,IL,606909786,888-292-0272,75068
5,ALLIED BENEFITS SYSTEM,PO BOX 909786-60690,CHICAGO,IL,606909786,312-906-8080,75068
39,ALLIED BENEFITS SYSTEM 2,PO BOX 909786-60690,CHICAGO,IL,606909786,312-906-8080,37308
549,ALLIED BENEFITS SYSTEMS,PO BOX 188061,CHATTANOOGA,TN,37422-8061,312-906-8080,37308
682,Allied National Benefits,PO BOX 247,ALPHARETTA,GA,30009-0181,800-650-3199,7689
847,Allways Health Partners,PO BOX 30783,SALT LAKE CITY,UT,841310783,866-683-6441,39024
747,AMA Insurance,330 N Wabash Ave,Chicago,IL,60611-5885,888-627-5883,58379
688,AMA Insurance Agency Inc,PO BOX 804238,CHICAGO,IL,60680-4104,888-627-5883,
382,AMBETTER,PO BOX 5010,FARMINGTON,MO,63640-5010,855-745-5507,68069
838,Ameri Health Caritas VIP Care Plus,PO BOX 7074,London,KY,40742-7074,888-667-0318,77013
126,Ameriben,P.O. BOX 7186,Boise,ID,83707,866-504-6814,75137
110,American Apparel,P.O. Box 2220,Newport Beach,CA,92658,800-649-9121,24735
115,American Apparel 2,PO BOX 2220,Newport Beach,CA,92658,800-649-9121,24735
794,"American Health Resources, Inc",11 N 2ND AVE,SAINT CHARLES,IL,60174-1961,630-762-1717,AHR01
839,"American Health Resources, Inc 2 UB",11 N 2ND AVE,SAINT CHARLES,IL,60174-1961,800-570-3757,AHR01
88,American Medical and Life Insurance,P O BOX 1353,Chicago,IL,60690,888-264-1512,SPRNT
574,AMERICAN POSTAL WORKERS UNION APWU,PO BOX 1358,GLEN BURNIE,MD,21060-1358,800-222-2798,44444
869,American Public Life Insurance Company,PO BOX 248950,Oklahoma City,OK,73124-8950,800-256-8606,60801
873,American Public Life Insurance Company 2,PO BOX 248950,Oklahoma City,OK,73124-8950,800-256-8606,60801
725,American Worker,PO BOX 211704,EAGAN,MN,55121-3704,888-798-9480,93158
731,American Worker 2,PO BOX 211704,Eagan,MN,55121,888-798-9480,93158
553,Amerigroup of Indiana,PO BOX 61010,VIRGINIA BEACH,VA,23466-1010,800-454-3730,27514
623,AMITA Health Solutions - BCBS MA Amita,1639 N ALPINE RD,ROCKFORD,IL,61107-1481,630-348-3626,36346
704,Amita Resurrection Medical Center,630 E. JEFFERSON ST,ROCKFORD,IL,61107,773-572-8300,36396
643,AMITA ST JOSEPH HEALTH,630 E. JEFFERSON ST,Rockford,IL,61107,888-747-2264,36396
621,AMITA ST. MARYS & ELIZABETH HMO,1639 N Alpine Road,ROCKFORD,IL,61107,888-747-2264,36396
640,Amita/BCBS Pre-fix -YLI or IOQ,PO BOX 37506,Oak Park,MI,48237-0506,844-659-2519,38259
250,ANTHEM BLUE CROSS,P O BOX 805107,CHICAGO,IL,606803625,800-972-8088,SB621
302,Apex,1240 E DIEHL ROAD SUITE 100,NAPERVILLE,IL,605630000,630-300-6232,51909
7,APOGEE HEALTH PARTNERS,2850 S WABASH AVE,CHICAGO,IL,606162955,773-737-7300,SPRNT
578,APWU Health Plan 2,PO BOX 1358,GLEN BURNIE,MD,21060-1358,800-222-2798,44444
624,Arcadia-BCBS Plan,Amita Health CIN,Rockford,IL,61107,888-747-2264,36396
625,Arcadia-Humana Plan,Amita Health CIN,Rockford,IL,61107,877-274-9183,36396
155,Arkansas Blue Cross and Blue Shield,P O BOX 2181,Little Rock,AR,72203,877-233-7022,12021
860,Ascendion SmartHealth 2,P.O. BOX 37705,Oak Park,MI,48237-7705,888-492-6811,38259
683,Ascension Complete,PO BOX 8050,FARMINGTON,MO,63640-8010,833-293-5966,68069
808,ASCENSION COMPLETE ILLINOIS MEDICARE,PO BOX 3060,FARMINGTON,MO,63640-3822,833-293-5966,68069
639,Ascension SmartHealth,P.O. BOX 37705,Oak Park,MI,48237-7705,888-492-6811,38259
769,ASH,PO Box 1810,Draper,UT,84020,844-270-8444,88067
506,ASR Health Benefit,PO BOX 6392,Grand Rapids,MI,49516-6392,800-968-3033,38265
622,ASR HEALTH BENEFIT 2,PO BOX 6392,GRAND RAPIDS,MI,495166392,800-968-3033,38265
627,ASRM,505 S LENOLA RD,MOORESTOWN,NJ,08057-1549,866-282-1491,ASRM1
123,Assurant Health 2,PO BOX 624,MIlwaukee,WI,532010624,800-328-4316,39065
8,ASSURANT HEALTH/ASA,P O BOX 91604,Lubbock,TX,79490,800-328-4316,SPRNT
221,AUXIANT PPO,"PMB 418, 15560 N. FLW Blvd",Scottsdale,AZ,852600000,800-279-6772,
227,AUXIANT PPO 2,"PMB 418, 15560 N. FLW Blvd",Scottsdale,AZ,852600000,800-279-6772,
365,AXA EQUITABLE,PO BOX 2107,GRAPEVINE,TX,76099-2107,800-782-9355,PAPER
76,Bakery and Confectionery union,10401 Connecticut Ave,Kensington,MD,208953960,301-468-3731,SPRNT
510,Bakery Drivers Local 734,6643 N NORTHWEST HWY,CHICAGO,IL,60631-1300,773-594-2810,
337,BANKERS FIDELITY,PO BOX 105652,ATLANTA,GA,30348-5056,301-468-3731,BNKFL
89,Bankers Life and Casualty,Colonial Penn Life INsurance Company,Carmel,IN,460821935,800-800-2254,SPRNT
582,BAS (BENEFIT ADMINISTRATIVE SYSTEMS LL,PO BOX 2920,MILWAUKEE,WI,53201-2900,800-523-0582,36149
867,BCBS AMITA CIN,PO BOX 805107,CHICAGO,IL,60680-3625,800-538-8833,SB621
136,BCBS FACILITY,PO BOX 805107,CHICAGO,IL,606803625,800-972-8088,SB621
618,BCBS HMO,PO BOX 805107,CHICAGO,IL,60680-3625,800-972-8088,2
868,BCBS HMO UNIV OF IL CHICAGO PHYS,1639 N ALPINE RD,ROCKFORD,IL,61107,800-865-0093,36364
407,Benefit Administrative Systems,PO Box 188061,Chattanooga,TN,37422-8061,800-523-0582,62308
362,Benefit Administrative Systems,PO BOX 2920,Milwaukee,WI,53201-2920,800-523-0582,36149
363,Benefit Administrative Systems 2,P O BOX 2920,Milwaukee,WI,53201-2920,800-523-0582,36149
656,Benefit Plan Administrators Inc,PO Box 21392,Eagan,MN,55121,800-277-8973,19753
692,BIND/United Health Group,PO BOX 211758,EAGAN,MN,55121-3751,844-368-6661,25463
778,Bind2,PO BOX 211758,Eagon,MN,55121-3751,844-368-6661,25463
592,BLUE ADVANTAGE/MERCY IPA/OP,1240 E. DIEHL RD,NAPERVILLE,IL,60563,312-567-7685,INDPM
851,Blue Choice PPO,PO BOX 805107,CHICAGO,IL,60680-3625,800-538-8833,SB621
852,Blue Choice PPO Facility,PO BOX 805107,CHICAGO,IL,606803625,800-972-8088,SB621
10,BLUE CROSS BLUE SHIELD,PO BOX 805107,CHICAGO,IL,60680-3625,800-538-8833,SB621
712,Blue Cross Blue Shield MI,600 E LAFAYETTE BLVD,DETROIT,MI,48226-2927,800-400-2815,
544,Blue Cross Blue Shield MMP,300 E Randolph,Chicago,IL,60601,800-654-7385,
455,Blue Cross Community FHP/ICP,P.O. BOX 3418,SCRANTON,PA,18505-3418,877-860-2837,MCDIL
842,Blue Cross Community FHP/ICP 2,P.O. BOX 3418,SCRANTON,PA,18505-3418,877-860-2837,66005
563,Blue Cross Community MMAI,P.O. BOX 4168,SCRANTON,PA,18505-4168,877-723-7702,MCDIL
673,Blue Cross Community-Mcdil,PO BOX 3267,Scranton,PA,18505-0267,,MCDIL
564,Blue Cross Community-UB,PO BOX 804433,CHICAGO,IL,60680-4105,800-972-8088,66005
591,BLUE CROSS EXCHANGE-MERCY 1,1240 DIEHL RD,NAPERVILLE,IL,60563,630-300-6240,INDPM
674,BLUE CROSS HEALTH CHOICE,PO BOX 4168,SCRANTON,PA,18505,,
498,BLUE CROSS MEDICARE ADV PPO,PO BOX 3686,SCRANTON,PA,18505-0661,877-774-8592,66006
252,BLUE CROSS MEDICARE ADVANTAGE,PO BOX 3686,SCRANTON,PA,18505-0661,877-774-8592,66006
497,BLUE CROSS MEDICARE ADVANTAGE HMO,PO BOX 3686,Scranton,PA,18505-0661,877-774-8592,66006
464,Blue Cross Medicare Advantage UB,PO BOX 3686,Scranton,PA,18505-0661,800-972-8088,66006
698,Blue FocusCare,P.O. BOX 3418,SCRANTON,PA,18505-3418,877-860-2837,66005
542,BLUE SHIELD OF PR MEDICARE ADVANTAGE,PO BOX 11320,SAN JUAN,PR,9221320,787-774-6060,66006
579,BMGI,P.O. BOX 211397,Eagan,MN,55121,855-257-0145,49105
732,Bright Health HMO,PO Box 16275,Reading,PA,19612-6275,866-239-7191,BRGHT
770,Bright Healthcare PPO,PO Box 16275,Reading,PA,19612-6275,866-239-7191,BRGHT
598,CAPITOL ADMINISTRATORS,10951 WHITE ROCK RD,RANCHO CORDOVA,CA,95670-6366,916-669-2500,68011
641,Cardinal Choice,,,,,877-301-6136,
746,Care First BCBS,PO BOX 981608,EL PASO,TX,79998-1612,,75191
433,CATAMARAN,PO BOX 968022,SCHAUMBURG,IL,60196-8002,800-756-3702,
11,CELTIC INSURANCE COMPANY,P O BOX 26440,LITTLE ROCK,AR,72221,800-477-7870,CELTC
40,CELTIC INSURANCE COMPANY 2,P O BOX 26440,LITTLE ROCK,AR,72221,800-477-7870,CELTC
367,CENPATICO,PO BOX 7200,Farmington,MO,63640-4402,866-329-4701,PAPER
212,central ink,,,,,,
508,CENTRAL UNITED LIFE,PO BOX 924408,HOUSTON,TX,77292-4401,800-999-2971,
771,CENTRAL UNITED LIFE INSURANCE,P O Box 925568,Houston,TX,77292-5568,800-877-7703,
299,CENTURY HEALTHCARE,PO BOX 2256,GRAPEVINE,TX,76099-2161,800-950-7040,75261
402,Century Healthcare 2,PO BOX 2256,GRAPEVINE,TX,76099-2161,800-950-7040,75261
12,CENTURY PHO,1029 N SACRAMENTO AVE,CHICAGO,IL,606222746,773-278-8555,36393
691,CENTURY PHO (HUMANA),1240 E DIEHL ROAD S,NAPERVILLE,IL,60563,,
338,"Certificed Services, Inc.",PO BOX 177,Waukegan,IL,60079-0177,847-623-6440,
360,CHAMP VA- JESSE BROWN,136E 820 SOUTH DAMEN AVE,CHICAGO,IL,60612,312-569-8387,SPRNT
95,Chesterfield Resources. Inc,PO BOX 1884,AKRON,OH,44309,888-575-3132,34154
404,CHICAGO HEALTH SYSTEM,PO BOX 9006,OAK BROOK,IL,60522-9292,708-783-7100,621
835,CHRISTIAN BROTHER SERVICES,,,,,,
593,Christian Brothers Jesuit Trust,1205 Windham Pkwy,Romeoville,IL,60446-1672,800-807-0500,38308
354,CHRISTIAN HEALTHCARE MINISTRY,ATTN TALEYA BELL,BARBERTON,OH,44201,,PAPER
557,Cigna,PO BOX 188061,CHATTANOOGA,TN,37422-8061,800-244-6224,62308
13,CIGNA,PO BOX 182223,CHATTANOOGA,TN,374227223,800-244-6224,62308
387,CIGNA OPEN ACCESS PLUS,PO BOX 188061,CHATTANOOGA,TN,37422-8061,800-244-6224,62308
41,CIGNA 2,P O BOX 182223,CHATTANOOGA,TN,374227223,800-244-6224,62308
558,Cigna 2,PO BOX 188061,Chattanooga,TN,374228061,866-494-2111,62308
843,Cigna Connecticut General Life Ins,PO BOX 188021,CHATTANOOGA,TN,37422,800-258-6534,62308
710,Cigna Health Springs Advocate Group,PO Box 0522,Mount Prospect,IL,60056-0522,800-356-6747,36320
846,CIGNA HEALTH SPRINGS- True Choice Plus Medicare (PPO)/,PO BOX 981706,El Paso,TX,79998,800-230-7298,52192
366,CIGNA HEALTHCARE,PO BOX 188010,CHATTANOOGA,TN,37422,800-258-6534,62308
278,CIGNA HEALTHSPRING,PO BOX 981706,El Paso,TX,79998,800-230-6138,52192
225,CIGNA HEALTHSPRING 2,PO BOX 981804,El PASO,TX,79998,866-668-3813,E3092
18,CIGNA HEALTHSPRING MMAI,PO BOX 981804,El Paso,TX,79998-1804,866-486-6065,52192
503,CIGNA HMO,PO BOX 182223,CHATTANOOGA,TN,374227223,800-244-6224,62308
512,CIGNA HMO CONNECT,PO BOX 188061,CHATTANOOGA,TN,37422-8061,877-625-0205,62308
803,Cigna International,PO Box 15964,Wilmington,DE,19850,800-835-7677,62308
804,Cigna International 2,PO BOX 15964,Wilmington,DE,19850,800-835-7677,62308
235,CIGNA MEDICARE HMO,PO BOX 981706,El Paso,TX,79998,800-230-7298,52192
845,Cigna Medicare Supplement 2,PO BOX 30010,Austin,TX,78755-3010,866-459-1755,13193
792,Cigna Medicare Supplement Insurance,PO Box 30010,Austin,TX,787553010,866-459-1755,13193
228,CIGNA MEDICARE SUPPLEMENT SOLUTIONS,PO BOX 30010,AUSTIN,TX,78755-3010,866-459-1755,13193
632,Cigna One Health,PO BOX 188061,CHATTANOOGA,TN,37422-8061,877-625-0205,62308
401,Cigna Open Access 2,P O BOX 188061,CHATTANOOGA,TN,374228061,877-625-0205,62308
781,CIGNA Open Access plus,PO BOX 182223,CHATTANOOGA,TN,374227223,800-244-6224,62308
814,CIGNA Open Access Plus 2,P O BOX 182223,CHATTANOOGA,TN,374227223,800-244-6224,62308
589,CIGNA PPO,P.O. BOX 3025,BOURBONNAIS,IL,60914,,
689,Cigna-HealthSpring Preferred (HMO),PO Box 981706,El Paso,TX,79998,800-230-6138,63092
861,Claims Administration 2,PO BOX 371860,Denver,CO,80237-9998,888-567-6847,52095
755,CLAIMSBRIDGE,P O BOX 416,ARNOLD,MD,21012,410-349-3222,11752
626,Clear Spring Health,PO BOX 491,Park Ridge,IL,60068-0491,877-349-9339,85468
98,"Co-ordinated benefit plans, LLC",P O Box 21517,Eagan,MN,55121,877-693-8529,
699,"Co-ordinated benefit plans, LLC",P O Box 21673,Eagan,MN,55121,800-269-3563,
116,"Co-ordinated benefit plans, LLC 2",PO BOX 21517,Eagan,MN,55121,877-693-8529,SPRNT
720,Cofinity,PO BOX 2720,FARMINGTON HILLS,MI,48333-2661,800-622-5579,42049
236,COLONIAL PENN LIFE INSURANCE COMPANY,PO BOX 1935,CARMEL,IN,46082-1935,800-800-2254,PAPER
277,COMBINED INSURANCE,P O BOX 740189,ATLANTA,GA,30374-0819,800-523-5800,36273
428,Commercial Travelers,70 GENESEE ST,UTICA,NY,13502-3503,800-756-3702,88091
429,Commercial Travelers 2,70 GENESEE ST,UTICA,NY,13502-3581,800-756-3702,88091
353,COMMUNITY CARE ALLIANCE IL 2020,P.O. Box 3417,SCRATON,PA,185050417,877-364-4566,66012
494,COMMUNITY CARE ALLIANCE OF IL 2019,PO BOX 3417,Scranton,PA,185050417,877-364-4566,66012
444,Community Care NFP MCR for 2019,P.O. Box 981731,El Paso,TX,79998-1731,877-364-4566,66012
489,"COMMUNITY HEALTH CHOICE,INC",PO BOX 301424,HOUSTON,TX,77230,855-315-5386,60495
568,Companion Life,PO BOX 247,ALPHARETTA,GA,30009-0247,844-630-7500,7689
62,COMPANION LIFE INS CO 2,"994 OLD EAGLE SCHOOL ROAD, SUITE 1005",WAYNE,PA,190871802,866-317-9040,SPRNT
61,COMPANION LIFE INS COMPANY,"994 OLD EAGLE SCHOOL ROAD, SUITE 1005",WAYNE,PA,190871802,866-317-9040,22384
393,COMPANION LIFE WEB-TPA,P.O.BOX 99906,GRAPEVINE,TX,76099-9906,800-952-7420,75261
153,Comprehensive Benefits,PO BOX 8955,Melville,NY,11747,800-231-7269,3036
599,connect your care llc,123 no info,CHICAGO,IL,60680-3625,800-972-8088,
281,Consolidated Health Plan,2077 Roosevelt Avenue,Springfiled,MA,01104-3503,800-633-7867,87843
654,Consolidated Health Plan 2,2077 Roosevelt Avenue,Springfiled,MA,01104-3503,855-664-5837,87843
620,Cook Medical Group,PO BOX 21244,Eagan,MN,55121,844-433-8811,60065
14,CORESOURCE,P.O. BOX 2920,CLINTON,IA,527332920,800-848-3012,58379
42,CORESOURCE 2,P.O. BOX 2920,CLINTON,IA,527332920,800-848-3012,58379
341,COUNTRY LIFE INSURANCE COMPANY,ATTN MEDICARE CLAIM PROCESSING CENTER,CLEARWATER,FL,33757-8870,855-304-2858,
469,COUNTY CARE HEALTH PLAN,PO BOX 211592,Eagan,MN,55121-2892,312-864-8200,6541
811,County Care Health Plan 2,PO BOX 211592,Eagan,MN,55121-2892,312-864-8200,6541
63,COVENTRY HEALTHCARE,P.O. BOX 7704,LONDON,KY,40742,800-627-4872,25133
316,Coventry Healthcare-Medicare,P.O. BOX 7087,LONDON,KY,40742,800-627-4872,25133
317,Coventry Healthcare-Medicare 2,P O BOX 7087,LONDON,KY,40742,800-627-4872,E5133
137,COVENTRY HEALTHCARE2,P O BOX 7704,LONDON,KY,40742,800-627-4872,E5133
381,COVENTRY ONE PPO NETWORK,P.O. BOX 7141,LONDON,KY,40742,800-562-5792,25133
848,Custom Design Benefits,5589 CHEVIOT RD,CINCINNATI,OH,45247-7020,513-855-6352,82056
853,Custom Design Benefits 2,5589 Cheviot Road,Cincinnati,OH,45247-7020,513-855-6352,82056
210,Cypress Benefits Administrators,PO Box 880,Farmington,IL,48331,800-975-0070,88056
463,Cypress Benefits Administrators 2,PO BOX 880,FARMINGTON,MI,48332-0851,800-975-0070,880UB
330,Dart Member Care,PO BOX 173129,TAMPA,FL,33672-1129,800-248-0457,CB987
485,Dart Member Care UB,P O BOX 173129,TAMPA,FL,33672-1129,800-248-0457,CB98U
779,Devoted Health,P O Box 211524,Eagan,MN,55121,877-762-3515,DEVOT
389,Do Not Use No an Insurance Multiplan,PO BOX 99906,Grapevine,TX,76099,800-952-7420,75261
231,Do Not Use No an Insurance MULTIPLAN,P O BOX 5397,DEPERE,WI,541150000,800-672-2140,SPRNT
245,Do Not Use No an Insurance MULTIPLAN LTD BENEFITS,CLAIMEDIX,KANSAS CITY,MO,641140000,888-350-1488,74048
52,EA HEALTH,EA HEALTH,,IL,,866-803-2262,SPRNT
870,ELAP,PO BOX 9763,ARNOLD,MD,21012-0794,877-435-2063,80900
875,ELAP2,PO BOX 9763,ARNOLD,MD,21012-0794,877-435-2063,80900
759,"Employee Plans, LLC",1111 Chestnut Hills Pkwy,Fort Wayne,IN,46814,800-964-7444,35112
760,"Employee Plans, LLC 2",1111 Chestnut Hills Pkwy,Fortt Wayne,IN,46814,800-964-7444,35112
94,"Envision Healthcare, Inc.",PO BOX 5047,Oak Brook,IL,605225047,866-672-7526,
213,Equitable Life,P.O. Box 2460,Salt Lake City,UT,84110-2460,800-352-5170,SPRNT
467,FAMILY HEALTH NETWORK FHP,P.O. BOX 981731,EL Paso,TX,79998-1731,888-346-4968,85468
104,First Health Network,P.O. BOX 2140,Folsom,CA,95763-2140,866-755-6974,SPRNT
379,FIRST HEALTH NETWORK,PO BOX 88500,INDIANAPOLIS,IN,46208,800-628-4664,PAPER
105,First Health Network 2,P.O. BOX 2140,Folsom,CA,95763-2140,866-755-6974,37308
132,FIRST+PLUS,PO BOX 195559,SAN JUAN,PR,919,787-625-9557,SPRNT
161,Freedom Life insurance Company PHCS,PO BOX 1628,Addision,TX,75001-1628,877-698-7440,62324
784,Freedom Life Insurance PHCS 2,PO Box 1628,Addision,TX,75001-1628,866-745-8744,62324
672,Fringe Benefit Group,PO BOX 21854,EAGAN,MN,55121-0854,855-495-1192,45289
719,Fringe Benefit Group (Do not Use),PO BOX 211704,EAGAN,MN,55121-3673,888-798-9480,59204
874,Fringe Benefit Group 2,PO BOX 21854,Eagan,MN,55121,855-495-1192,45289
816,Fringe Benefit Group 2 (Do Not Use),PO BOX 211704,Eagan,MN,55121,888-798-9480,93158
650,FULTON TROIKA LLC,,,,,,
73,GEHA,PO BOX 4665,Independance,MO,640514665,800-821-6136,44054
74,GEHA 2,PO BOX 4665,Independance,MO,640514665,800-821-6136,44054
99,Geisinger choice,P.O. BOX 8200,Danville,PA,17821-8200,800-504-0443,SPRNT
100,Geisinger Choice 2,Po Box 8200,Danville,PA,17821-8200,800-504-0443,SPRNT
716,GEISINGER HEALTH GROUP,P O BOX 853910,RICHARDSON,TX,75085-3910,800-876-5357,75273
53,GHI,PO Box 3000,New York,NY,101153000,212-501-4444,13551
217,GHI 2,PO BOX 3000,New York,NY,101163000,212-615-4362,A3551
509,"GLOBAL CARE, INC.",PO BOX 247,Alpharetta,GA,30009-0247,866-323-2985,7689
707,Global Excel Aetna,777 Brickell Ave,Miami,FL,,866-299-2900,
233,GLOBAL EXCEL MANAGEMENT,PO BOX 10,BEEBE PLAIN,VT,05823-0001,877-566-6520,GEM01
427,"GMMI, INC",1300 CONCORD TER,SUNRISE,FL,33323-2899,800-682-6065,SPRNT
812,GMP-Employers Retiree Trust,5245 Blg Pine Way. S.E.,Fort Myers,FL,33907-5998,239-936-6242,23641
399,Golden Rule,712 11TH ST,LAWRENCEVILLE,IL,62439-2316,888-657-8205,37602
75,Golden Rule 2,PO BOX 31374,SALT LAKE CITY,UT,841310374,800-657-8205,37602
72,Golden Rule United Health One,PO BOX 31374,SALT LAKE CITY,UT,841310374,800-657-8205,37602
634,GOTTLIEB WEST TOWNS PHO PART OF LOYOLA,675 W NORTH AVE,Melrose Park,IL,60160,708-538-4945,
408,GOUP,PO BOX 749075,DALLAS,TX,75374-9075,866-206-3224,48143
594,GOUP 2,PO BOX 749075,DALLAS,TX,75374-9075,866-206-3224,48143
616,GPA,PO BOX 749075,DALLAS,TX,75374-9075,800-827-7223,48143
617,GPA 2,PO BOX 749075,DALLAS,TX,75374-9075,800-827-7223,48143
560,GPM Health and Life,PO BOX 2679,OMAHA,NE,68103-2679,866-865-7631,SPRNT
783,Group & Pension Administrator2,PO BOX 749075,Dallas,TX,753749075,866-206-3224,48143
409,"GROUP & PENSION ADMINISTRATORS, INC.",PO BOX 749075,DALLAS,TX,75374-9075,866-206-3224,48143
15,GROUP ADMINISTRATORS,PO BOX 95600,HOFFMAN ESTATES,IL,601950600,800-323-1683,36338
121,Group Administrators 2,PO BOX 95600,Hoffman Estates,IL,601950600,800-323-1683,36338
523,GROUP HEALTH COOPERATIVE MADISON WI,PO BOX 44971,MADISON,WI,53744-4971,608-251-4156,39167
16,GWH CIGNA,P.O BOX 188061,CHATTANOOGA,TN,37422,866-494-2111,80705
767,GWH Cigna,1000 S GREAT WEST DR,KENNETT,MO,63857-7207,800-288-2078,62308
439,GWH Cigna,PO BOX 188061,CHATTANOOGA,TN,37422-8061,877-625-0205,62308
768,GWH Cigna 2,1000 Great-West Drive,Kennett,MO,83857-3745,800-288-2078,62308
43,GWH CIGNA 2,PO BOX 188061,Chattanooga,TN,374228061,866-494-2111,62318
440,GWH Cigna UB,P O BOX 188061,CHATTANOOGA,TN,374228061,877-625-0205,62308
405,HARKEN HEALTH,PO BOX 30521,SALT LAKE CITY,UT,84130-0363,800-797-9921,43313
406,Harken Health 2,PO BOX 30521,SALT LAKE CITY,UT,84130-0363,800-797-9921,U3313
435,Harmony Health 2,PO BOX 31372,TAMPA,FL,33631-3372,800-608-8158,14163
336,Harmony Health Plan of Illinois,PO BOX 31370,Tampa,FL,33631-3370,833-201-0575,14163
748,Hartford Life Insurance,PO BOX 10432,DES MOINES,IA,50306-0499,866-810-9452,
806,hawaii mainland administrators -multiplan,,,,,,
172,HCC Medical Insurance Services,P.O. BOX 2005,Farmington Hills,MI,48333-2005,800-605-2282,HCCMI
307,Health Alliance Plan of Michigan,PO Box 02459,Detroit,MI,48202,800-422-4641,38224
777,Health Partners Claims,PO BOX 1289,MINNEAPOLIS,MN,55440-1292,800-316-9807,SX009
695,Health Partners Plan,PO BOX 1230,PHILADELPHIA,PA,19105-1235,800-405-9681,SX009
761,Health Plan of Nevada,PO BOX 15645,LAS VEGAS,NV,89114-5645,800-777-1840,76343
585,HEALTH PLUS PHYSICIANS ORGANIZATION,475 N MARTINGALE RD,SCHAUMBURG,IL,60173,847-619-6671,63363
864,Health Smart Benefit Solutions 2,PO BOX 16327,Lubbock,TX,79490-6321,833-751-1096,37283
684,Health Smart Benefits Solutions,PO BOX 16327,LUBBOCK,TX,79490-6321,833-751-1096,37283
478,HEALTH SPRING,PO BOX 981706,El Paso,TX,79998,888-501-1141,63092
484,HEALTH SPRING ICP/MMAI,PO BOX 981706,El Paso,TX,79998,888-501-1141,63092
675,HealthEZ,P.O. BOX 211186,Eagan,MN,55121,952-896-9102,41178
375,HealthLink Open Access,PO BOX 411580,St Louis,MO,63141-1580,800-624-2356,96475
374,HealthLink Open Access 2,PO BOX 411580,SAINT LOUIS,MO,63141-1580,800-624-2356,96475
118,"HealthLink, Inc",PO BOX 419104,St Louis,MO,63141-9104,800-624-2356,90001
119,"HealthLink, Inc 2",PO BOX 419104,St Louis,MO,63141-9104,800-624-2356,90001
158,HealthPartners Claims,P.O. BOX 1289,Minneapolis,MN,55440-1289,866-779-7632,SX009
359,HealthPartners Claims 2,PO BOX 1289,Minneapolis,MN,55440-1289,952-883-6000,12X51
676,HealthPlan Services,PO BOX 30537,Salt Lake City,UT,84130-0537,800-216-2166,59143
681,HealthPlan Services 2,PO BOX 30537,Salt Lake City,UT,84130-0537,800-216-2166,59143
543,HealthSmart,3320 W MARKET ST,FAIRLAWN,OH,44333-3306,800-203-4720,34145
548,HealthSmart 2,3320 W MARKET ST,FAIRLAWN,OH,44333-3306,800-203-4720,SPRNT
46,HFN INC,P O BOX 3428,OAK BROOK,IL,605223428,800-295-5444,36335
192,HFN INC 2,P O BOX 3428,OAK BROOK,IL,605223428,800-295-5444,U6335
251,HIGHMARK FREEDOM BLUE PPO,P O BOX 805107,CHICAGO,IL,606803625,800-972-8088,SB621
131,HLTH PLUS PHYS ORG,Schaumburg,DES PLAINES,IL,60016,773-572-8300,36396
660,HMA,PO BOX 135005,Homolulu,HI,96801-5005,808-951-4621,86066
677,"HMA, LLC",PO Box 22009,Tempe,AZ,85285-2009,866-206-7920,86066
678,"HMA, LLC 2",PO BOX 22009,TEMPE,AZ,85285-2009,866-206-7920,86066
605,HORIZON BCBSNJ,PO BOX 1609,NEWARK,NJ,07101-1609,800-624-1110,22099
606,HORIZON BCBSNJ 2,PO BOX 1609,NEWARK,NJ,07101-1609,800-624-1110,22099
59,HORIZON HOSPICE,833 W Chicago,Chicago,IL,60622,312-733-8900,SPRNT
736,Humana Gold Plus 2,P.O. BOX 14601,LEXINGTON,KY,405124601,800-448-6262,61101
148,HUMANA GOLD PLUS MC,P.O. BOX 14601,LEXINGTON,KY,405124601,800-448-6262,61101
565,HUMANA GOLD PUERTO RICO,PO BOX 195560,SAN JUAN,PR,9195560,,61101
619,Humana HMO Premier Open Access,P.O. BOX 14601,LEXINGTON,KY,405124601,800-448-6262,61101
495,HUMANA ICP,P.O. BOX 14601,LEXINGTON,KY,405124601,800-448-6262,61101
262,Humana MC HMO MMAI,P.O. BOX 14601,LEXINGTON,KY,405124601,800-448-6262,61101
377,HUMANA MEDICARE HMO,P.O. BOX 14601,LEXINGTON,KY,405124601,800-448-6262,61101
500,HUMANA MEDICARE PPO,P.O. BOX 14601,LEXINGTON,KY,405124601,800-448-6262,61101
786,Humana PPO CHOICEPOS,P.O. BOX 14601,LEXINGTON,KY,405124601,800-448-6262,61101
19,HUMANA SUPPLEMENTAL,P.O. BOX 14601,LEXINGTON,KY,405124601,800-448-6262,61101
134,HUMANA2,P.O. BOX 14601,LEXINGTON,KY,405124601,800-400-9528,61101
766,Humboldt Park Health Partners,1029 N sacramento Avenue,Chicago,IL,60622,773-278-8555,36393
242,IBEW 9 FUND OFFICE,P O BOX 50,PEWAUKEE,WI,530720050,866-661-1021,PAPER
21,IL MEDICAID,201 S GRAND AVE E,SPRINGFIELD,IL,62704-3803,800-842-1461,SKIL0
270,IL MEDICAID 2,201 S Grand Ave,Springfield,IL,627043897,800-842-1461,621
157,IL MEDICAID FACILITY,201 S Grand Ave,Springfield,IL,627043897,800-842-1461,U0015
20,ILLINICARE HEALTH PLAN,PO BOX 4020,FARMINGTON,MO,63640-4402,866-329-4701,68069
466,ILLINICARE HEALTH PLAN ICP/FHP/LTSS,PO BOX 4020,FARMINGTON,MO,63640-4402,866-329-4701,68069
475,ILLINICARE HEALTH PLAN MMAI PRI,PO BOX 4020,FARMINGTON,MO,63640-4402,866-329-4701,68069
476,ILLINICARE HEALTH PLAN MMAI SEC,PO BOX 4020,FARMINGTON,MO,63640-4402,866-329-4701,68069
432,Illinicare UB,PO BOX 4020,Farmington,MO,63640-4402,866-329-4701,U8069
630,Illinois Health Plan - Dupage Medical Group,PO Box 7051,Downers Grove,IL,60515,630-789-8890,
721,Imagine Health,,,,,,
458,Imagine Health Gold PPO,PO BOX 7186,BOISE,ID,83707,866-955-1491,75137
597,Independence American Insurance Co.,PO BOX 13668,READING,PA,19612-3668,800-432-8421,CB231
238,INDEPENDENT PHYSICIANS AT MERCY,1240 E DIEHL ROAD SUITE 100,NAPERVILLE,IL,605630000,630-300-6232,SPRNT
815,Independent Physicians at Mercy,1639 N ALPINE RD,ROCKFORD,IL,61107-1481,800-865-0093,36396
649,INDEPENDENT PHYSICIANS AT MERCY,PO BOX 8236,Westchester,IL,60154,312-868-0563,INDPM
669,Insurance Benefit System Admin 2,P O BOX 247,Alpharetta,GA,30009-0247,800-650-3199,7689
668,Insurance Benefit System Adminstrators c/o Zelis,PO BOX 247,ALPHARETTA,GA,30009-0247,800-650-6497,7689
655,Insurance of Americo,PO Box 10814,Clearwater,FL,33757,888-220-7074,1
522,INSURANCE TPA,PO BOX 15953,LUBBOCK,TX,79490-5941,608-756-2290,39182
547,Insurance TPA 2,PO BOX 15953,Lubbock,TX,79490-5953,608-756-2290,U9182
166,Internatioanl Benefits Administrator,PO BOX 9306,Garden City,NY,11530,866-258-4019,SPRNT
859,International Benefits Administrators,PO BOX 3080,FARMINGTON HILLS,MI,48333-3080,877-271-6559,11329
705,Interstate Bankers Casualty Co.,8501 W HIGGINS RD,Chicago,IL,60631,773-693-3930,
857,iSO Sisco Benefits First Health Network,SISCO Benefits,dubuque,IA,52004-3190,833-577-2586,ISOSH
659,Kaiser Foundation Health Plan of the Mid-Atlantic States,PO Box 371860,Denver,CO,80237-9998,800-777-7902,52095
237,"Key Benefit Administrators, Inc",PO BOX 129,FORT MILL,SC,297161279,866-867-6883,37284
200,"KEY BENEFIT ADMINISTRATORS, INC 2",PO BOX 129,FORT MILL,SC,297161279,866-867-6883,37284
685,KPIC,PO BOX 261130,PLANO,TX,75026-1121,800-392-8649,KPIC1
686,KPIC 2,PO BOX 261130,PLANO,TX,75026-1121,800-392-8649,KPIC1
471,Laborers Welfare Fund,11465 W Cermak Rd.,Westchester,IL,60154,866-906-0222,SPRNT
322,LAND OF LINCOLN HEALTH,PO BOX 618357,CHICAGO,IL,60661-8291,844-674-3844,90096
334,Land of Lincoln Health 2,PO BOX 618357,Chicago,IL,60661-8291,844-674-3844,90096
607,Lawndale Christian Health Center,3860 W Ogden ave,Chicago,IL,60623,872-588-3070,
198,Local 1546 Health and wellcare funds,1649 W Adams St 3rd FL,CHICAGO,IL,60612,312-829-2156,SPRNT
738,Loomis,PO BOX 14326,Reading,PA,19612-4326,866-417-4273,23223
628,Loyola Univ Physicians FDN,2 Westbrook Corporate Center,Westchester,IL,60154,,
315,"MACNEAL HEALTH PROVIDERS, INC.",PO BOX 9006,OAK BROOK,IL,60522,708-783-7100,36334
670,Maestro Health,PO BOX 1178,MATTHEWS,NC,28106-1178,888-850-4148,56139
400,Magellan Complete Care of Florida,PO BOX 2097,MARYLAND HEIGHTS,MO,63043-0801,,
124,Mail Handlers Benefit Plan,PO BOX 8402,London,KY,407428402,800-410-7778,62413
133,Managed Care Misc Supplemental,Chicago Graphic Arts Local 458m,Oak Brook,IL,60523,800-997-4586,SPRNT
264,MANAGED HEALTH CARE ASSOC,2740 W FOSTER AVE,CHICAGO,IL,60625,773-271-0880,36312
790,ManhattanLife Assurance,P.O. BOX 924408,Houston,TX,77292-4408,800-877-7792,SPRNT
791,ManhattanLife Assurance 2,P.O. BOX 924408,Houston,TX,77292-4408,800-669-9030,SPRNT
436,MAPFRE LIFE INSURANCE COMPANY,PO BOX 740819,ALTLANTA,GA,30374-0819,866-212-2851,36273
437,MAPFRE LIFE INSURANCE COMPANY,PO BOX 70297,SAN JUAN,PR,00936-8297,787-622-7780,460012
665,MASS Health,P.O. Box 120010,Boston,MA,02112-0010,800-841-2900,SKMA0
774,mayo Medical,,,,,,
261,"MCS ADVANTAGE, INC.",Po Box 191720,San Juan,PR,00917-1720,787-758-2500,
499,Medcost Solution/LHS-UB,PO BOX 36908,CANTON,OH,44735-6861,855-585-4237,U0753
488,MEDCOST SOLUTIONS LLC/LHS,PO BOX 36908,CANTON,OH,44735,888-604-4337,
218,Medi-Cal,PO Box 15507,Sacramento,CA,95852,800-842-1461,SPRNT
612,Medi-Share,PO BOX 981652,EL PASO,TX,79998-1652,321-308-7777,59355
613,Medi-Share 2,PO BOX 981652,EL PASO,TX,79998-1652,321-308-7777,59355
757,Medica,PO BOX 211435,EAGAN,MN,55121,800-458-5512,71890
361,MEDICADE-STATE OF TEXAS,PO BOX 149024,AUSTIN,TX,78714-9024,855-827-3747,SPRNT
383,MEDICAID-FLORIDA OUT OF STATE,PO BOX 841309,PEMBROKE PINES,FL,33084,866-899-4828,SPRNT
304,Medical Mutual,PO BOX 6018,CLEVELAND,OH,44101-1018,800-362-1279,29076
352,Medical Mutual Facility,P O BOX 6018,Cleveland,OH,44101,800-362-1279,E9076
810,Medical Records,,,,,,
22,MEDICARE,PO BOX 6475,INDIANAPOLIS,IN,462066475,877-908-9499,SMIL0
149,Medicare 2,PO BOX 6475,INDIANAPOLIS,IN,462066475,877-908-9499,SMIL0
107,MEDICARE Y MUCHO MAS,PO BOX 71114,San Juan,PR,00936-8014,787-622-3000,L0210
635,Medicine Stop of Elgin,800 SUMMIT ST,ELGIN,IL,60120-4316,847-742-7740,
472,MERCER CONSUMER,PO BOX 14426,DES MOINES,IA,50306-3401,,
722,Meridian Complete,PO BOX 3060,Farmington,MO,63640,855-580-1689,MCCIL
394,MERIDIAN HEALTH PLAN FHP ICP,P O Box 4020,Farmington,MO,63640,866-606-3700,MCCIL
800,Meridian Illinois Youth Program,P O Box 4020,Farmington,MO,63640,866-606-3700,MHPIL
23,MERITAIN HEALTH,P.O. BOX 853921,RICHARDSON,TX,750853921,866-839-4301,41124
44,MERITAIN HEALTH 2,P.O. BOX 853921,RICHARDSON,TX,750853921,866-839-4301,41124
658,Meritain Health Inc,300 CORPORATE PKWY,AMHERST,NY,14226-1207,800-925-2272,64157
801,Meritain Health Inc 2,300 Corporate Pkwy,Amherst,NY,142261207,866-839-4301,64157
254,MERITAIN HEALTH MINNEAPOLIS,P.O. BOX 27267,MINNEAPOLIS,MN,554270267,800-765-4224,58379
255,MERITAIN HEALTH MINNEAPOLIS 2,P.O. BOX 27267,Minneapolis,MN,55427-0267,800-765-4224,58379
223,MIDWEST OPERATING ENGINEERS BEN FUND,6150 JOLIET ROAD,COUNTRYSIDE,IL,60525-3994,708-482-7300,SPRNT
661,MISC LIABILITY/MVA/ACCIDENT/BI/PI,120 North Lasalle St. 35th floor,Chicago,IL,60602,312-546-8100,
663,MISC MEDICAID HMO,PO BOX 121205,BOSTON,MA,2112,,SKMA2
504,MISC MEDICARE REPLACEMENT,PO BOX 11320,SAN JUAN,PR,00922-1320,787-620-1919,6102
700,MISC NON CONTRACT,1634 W POLK STREET,CHICAGO,60612,,312-423-4200,
724,MMM Conecta Contigo,PO BOX 71305,SAN JUAN,PR,00936-8425,787-622-3000,
493,MOLINA HEALTHCARE OF ILL FHP,PO BOX 540,LONG BEACH,CA,90801,888-585-2516,20934
726,MOLINA HEALTHCARE OF ILL MMCP,PO BOX 22812,LONG BEACH,CA,90801,888-322-4076,20934
378,MOLINA HEALTHCARE OF ILLINOIS,PO BOX 540,LONG BEACH,CA,90801,888-562-5442,20934
355,MONEY2 FOR HEALTH,PO BOX 790036,ST LOIUS,MO,63179,877-305-0942,PAPER
718,MoreCare,PO BOX 21325,EAGAN,MN,55121-0321,844-865-8033,65465
130,Msc Behavioral Health,PO Box 5312,Evanston,IL,60204,800-753-5456,SPRNT
146,MSC COMMERCIAL,GENERAL DISBURSEMENT ACCT,FRANKLIN,TN,37067,615-503-1000,SPRNT
644,MSO OF PUERTO RICO,PO BOX 71500,SAN JUAN,PR,936,787-993-2317,
390,MUTUAL OF OMAHA INSURANCE COMPANY,3300 MUTUAL OF OMAHA PLAZA,OMAHA,NE,68175,800-775-6000,71412
129,mvp select care Inc 2,625 State St,SCHENECTADY,NY,12301,800-684-9286,SPRNT
128,MVP Select Care. Inc.,625 State St,Schenectady,NY,12301-2207,800-684-9286,SPRNT
326,MyCare Chicago,201 S. GRAND AVE.,SPRINGFIELD,IL,627043897,800-842-1461,15
690,NAPHCARE,2090 COLOMBIANA ROAD SUITE 4000,BIRMINGHAM,AL,35216,800-834-2420,58182
807,National Association of Letter 2,PO BOX 5909,Scranton,PA,18505-5909,888-636-6252,62308
177,National Association of Letter Carriers,PO BOX 5909,Scranton,PA,18505-5909,888-636-6252,62308
711,National General and Accident Health,P O Box 3252,Milwaukee,WI,53201,855-212-5014,ASHC1
828,NEED INSURANCE,,,,,,
384,NEXTLEVEL HEALTH PARTNERS ICP/FHP,PO BOX 830700,Birmingham,AL,35283,312-809-5693,81085
103,NIPPON LIFE INSURANCE CO,P.O. BOX 39710,COLORADO SPGS,CO,809493910,877-210-5518,81264
441,Nippon Life Insurance Co-UB,PO BOX 25951,Shawnee Mission,KS,66225-5951,888-632-3862,81264
438,NIPPON LIFE INSURANCE CO. OF AMERICA,PO BOX 25951,SHAWNEE MISSION,KS,66225-5951,800-374-1835,81264
765,Non Self Pay,,,,,,
697,Northshore HMO Medical Group,P O BOX 211382,EAGAN,MN,55121,,
271,NORTHSHORE PHYSICIANS ASSOCIATES,PO BOX 331719,CORPUS CHRISTI,TX,78463-1661,,48026
111,Norwegian American Hospital,Norwegian American Hospital,,IL,,773-292-5966,10
651,NY Medicaid Out Of State,PO BOX 4601,RENSSELAER,NY,12144-4601,800-343-9000,SKNY0
646,Oak Street Health,P.O BOX 7970,Westchester,IL,60154,312-985-5677,
737,OneShare Health,PO BOX 14326,Reading,PA,19612-4326,833-546-4473,23223
753,OPTIMED,22 Technology Parkway Plans S,Peachtree Corners,GA,30092,800-482-8770,96277
836,OptiMedHealth,P.O. BOX 18233,Cincinnati,OH,45218,855-739-6500,31441
837,OptiMedHealth 2,PO BOX 18233,Cincinnati,OH,45218,866-862-6935,31441
442,OXFORD HEALTH Insurance,PO BOX 29130,HOT SPRING,AR,71903,800-666-1353,6111
92,PAI,PO BOX 6702,Columbia,SC,29260,866-798-0803,37287
113,PAI 2,PO BOX 6702,Columbia,SC,29260,866-798-0803,37308
513,PALMETTO GBA,PO BOX 10066,AUGUSTA,GA,30903-1021,,
764,Pan-American Life Insurance Co,P O Box 981644,El Paso,TX,79998-1644,800-999-5382,4218
645,PARTNERS IN HEALTH INC,PO BOX 7007,Westchester,IL,60181-3984,312-985-0590,
24,PBA,PO BOX 4687,OAKBROOK,IL,605224687,800-435-5694,36331
45,PBA 2,PO BOX 4687,OAKBROOK,IL,605224687,800-435-5694,36331
112,PCIP,PO BOX 30783,SALT LAKE CITY,UT,84130,877-777-6872,39026
461,PENDING,,,,,,SPRNT
71,PHCS,P.O. BOX 211532,Eagan,MN,55121,877-728-4548,72099
117,PHCS 2,PO BOX 211532,Eagan,MN,55121,877-728-4548,72099
70,PHILADELPHIA AMERICAN LIFE Ins Co,P.O. BOX 4884,HOUSTON,TX,772104884,800-552-7879,98798
756,Physician Health Association,630 E. JEFFERSON ST,ROCKFORD,IL,61107,773-572-8300,36396
25,PHYSICIANS BENEFITS TRUST,PO BOX 90978660690,CHICAGO,IL,606909786,800-621-0748,SPRNT
57,PHYSICIANS BENEFITS TRUST 2,PO BOX 90978660690,CHICAGO,IL,606909786,800-621-0748,SPRNT
310,PHYSICIANS MUTUAL,P O BOX 2018,OMAHA,NE,68103-2018,800-228-9100,47027
142,Physicians Plus Insurance Corporation,P.O. Box 6090,De Pere,WI,54115-6090,800-545-5015,36326
154,Physicians Plus Insurance Corporation 2,PO BOX 6090,De Pere,WI,54115-6090,800-545-5015,36326
850,PLANET ASSIST,6303 BLUE LAGOON DR,MIAMI,FL,33126-6002,305-644-8315,
96,"planned administrators,inc.",PO BOX 6702,COLUMBIA,SC,29260,800-652-3076,SPRNT
81,PLUMBERS WELFARE FUND,1340 W WASHINGTON BLVD,CHICAGO,IL,60607,312-226-4200,SPRNT
555,Point Comfort Underwriters,P.O. Box 21628,Eagan,MN,55121,317-986-2588,PCU01
313,PORTER COUNTY GOV EMP BEN PLAN2,PO BOX 5764,LAFAYETTE,IN,47903-5761,800-244-6224,PAPER
327,Porter County GOVT EMP Benefit Plan,PO BOX 173129,Tampa,FL,33672,,43471
309,PORTER COUNTY GOVT EMP BENEFIT PLAN,PO BOX 5769,LAFAYETTE,IN,47903-5761,,SPRNT
78,Preferred Medicare Choice,PO BOX 361550,San Juan,PR,9361550,866-516-7702,SPRNT
733,Premier Access Corp,PO BOX 1468,ARLINGTON,TX,76004-1492,877-707-1442,43152
739,Premier Access Corp 2,PO BOX 1468,ARLINGTON,TX,76004-1492,877-707-1442,43152
460,PRESENCE SAINT JOSEPH HEALTH PARTNERS,2380 E DEMPSTER ST,Des Plaines,IL,60016,773-572-8300,36396
48,PRINCIPAL FINANCIAL GROUP,P.O. BOX 39710,COLORADO SPRINGS,CO,809493910,800-247-4695,61271
397,Priority Health,PO BOX 232,Grand Rapids,MI,49501-0232,800-942-4765,38217
396,Priority Health 2,PO BOX 232,Grand Rapids,MI,49501-0232,800-942-4765,U8217
514,PROVIDENCE HEALTH PLAN OREGAN,PO BOX 3125,PORTLAND,OR,97208-3125,800-878-4445,SX133
696,Providers Partners Health Plan,PO BOX 94290,LUBBOCK,TX,79493-4201,800-405-9681,31401
752,PSM HEALTH SMART SOLUTIONS,PO BOX 16327,LUBBOCK,TX,79490,866-511-4757,37256
662,PSWA,PO BOX 29939,HONOLULU,HI,96820-2331,844-808-2520,75309
26,RAILROAD MEDICARE,PO BOX 10066,AUGUSTA,GA,309990001,877-288-7600,SRRGA
340,Railroad Medicare 2,PO BOX 10066,AUGUSTA,GA,30999-0001,877-288-7600,SRRGA
168,Ravenwood Physician Association,4100 N Lincoln Ave,Chicago,IL,60618,773-868-2000,RPAWC
456,RCC,PO BOX 740819,ALTLANTA,GA,30374-0819,866-212-2851,36273
457,RCC,PO BOX 14566,LEXINGTON,KY,40512-4000,312-542-0525,
487,RESURRECTION PHYS PROVIDER GROUP INC,5860 W HIGGINS AVE,CHICAGO,IL,60630-2372,773-864-9418,
638,riteway pharmacy,4913 w fullerton Ave,Chicago,IL,60639,773-688-5438,
1,RXHUB,DO NOT DELETE USED BY RX ELIGIBILITY,,,,,RXHUB
49,SAGAMORE HEALTH NETWORK,SAG1002 (HCFA11C/UB50),INDIANAPOLIS,IN,462066051,800-364-3469,35164
50,SAGAMORE HEALTH NETWORK 2,SAG1002 (HCFA11C/UB50),INDIANAPOLIS,IN,462066051,800-364-3469,35164
776,SANA Benefits,PO Box 855,Arnold,MD,21012,844-512-3030,50114
785,SANA Benefits 2,PO BOX 855,Arnold,MD,21012,844-512-3030,50114
717,SBMA,PO BOX 2369,MONTCLAIR,CA,91763-0861,888-505-7724,SBMCO
782,SBMA2,P O BOX 2369,Montclair,CA,91763-0861,888-505-7724,SBMCO
274,SEC AARP HEALTH CARE OPTIONS 2,PO BOX 740819,ATLANTA,GA,303740819,877-842-3210,EN826
301,Sec AARP MEDICARE COMPLETE,PO BOX 31362,Salt Lake City,UT,84131-0362,800-711-6088,87726
300,Sec AETNA BETTER HEALTH,PO BOX 66545,PHOENIX,AZ,850826545,866-212-2851,26337
268,SEC BCBS,P O BOX 805107,CHICAGO,IL,606803625,800-972-8088,SB621
285,Sec CIGNA,PO BOX 182223,CHATTANOOGA,TN,374227223,800-244-6224,62308
298,Sec CIGNA MC REPLACEMENT,PO Box 805107,CHICAGO,IL,60680,,SPRNT
320,SEC COUNTY CARE HEALTH PLAN 2,"C/O AUTOMATED HEALTH SYSTEMS, INC.",PITTSBURGH,PA,15237,312-864-8200,60827
306,Sec HFN INC,P O BOX 3428,OAK BROOK,IL,605223428,800-295-5444,36335
289,Sec Managed Care Misc Supplemental,Chicago Graphic Arts Local 458m,Oak Brook,IL,60523,800-997-4586,SPRNT
266,Sec Medicare,PO BOX 6475,INDIANAPOLIS,IN,462066475,877-908-9499,SMIL0
265,Sec Medicare 2,PO BOX 6475,INDIANAPOLIS,IN,462066475,877-908-9499,SMIL0
287,Sec MSC COMMERCIAL,GENERAL DISBURSEMENT ACCT,FRANKLIN,TN,37067,615-503-1000,SPRNT
283,Sec ST MARY OF NAZARETH PHO,2380 EAST DEMPSTER ST. 3RD FL,DES PLAINES,IL,60016,773-572-8300,36396
293,Sec State Farm,PO Box 3070,Newark,OH,43058,,SPRNT
294,Sec UMR,PO BOX 30541,SALT LAKE CITY,UT,841300541,800-557-5087,39026
288,Sec UNICARE PPO,P O BOX 4458,CHICAGO,IL,606800000,800-508-9355,1
284,Sec UNITED HEALTH CARE,PO BOX 30555,SALT LAKE CITY,UT,841300555,877-842-3210,87726
273,Sec United of Omaha Life Ins 2,Mutual of Omaha Plaza,Omaha,NE,68175,800-546-5906,S1412
27,SECURE HORIZONS MEDICARE HMO,PO BOX 31362,SALT LAKE CITY,UT,841310362,877-842-3210,87726
370,SECURE HORIZONS MEDICARE PPO,PO BOX 31362,SALT LAKE CITY,UT,84131-0362,877-842-3210,87726
28,SEIU HEALTH AND WELFARE FUND,PO BOX 419104,SAINT LOUIS,MO,63141-9001,773-385-9300,90001
318,SEIU HEALTH AND WELFARE FUND 2,PO BOX 419104,SAINT LOUIS,MO,63141-9001,773-385-9300,90001
145,SELECTIVE BENEFITS ADMINISTRATORS,PO BOX 4250,Houston,TX,77210,866-798-0803,37282
872,SELF PAY,,,,,,
93,SENIOR CARE PARTNERS,PO BOX 7550,WESTCHESTER,IL,60154,708-240-5221,36390
195,Senior Care Partners c/o NAMM,"4415 W Harisson St, Suite 300",Hillside,IL,60162,708-432-4000,SPRNT
209,"Seven Corners, Inc",Attn Claims,CARMEL,IN,46032,800-335-0477,25404
566,Seven Cornors,PO BOX 3724,CARMEL,IN,46082-3721,800-461-0430,
199,SHEET METAL WORKERS NATL HLTH FUND,P O BOX 1449,GOODLEPTSVILLE,TN,370701449,800-831-4914,
325,Sierra Health & Life Insurance,Attention Claims Department,Las Vegas,NV,89114-5645,,76342
633,Sinai Medical Group,630 E Jefferson ST,Rockford,IL,61107,844-407-3438,
468,SISCO PHCS,PO BOX 309,DUBUQUE,IA,52004-0271,844-631-6104,44827
295,SMART PLAN CHOICE,201 S Grand Ave,springfield,IL,627043897,844-254-2273,15
410,SOUTH FLORIDA COMMUNITY CARE,PO BOX 841309,PEMBROKE PINES,FL,33084-3301,855-819-9506,
29,SPRAYING SYSTEM,PO BOX 247,ALPHARETTA,GA,30009-0247,630-665-5000,7689
459,Spraying Systems 2,PO BOX 7900,Wheaton,IL,601877901,630-665-5000,SPRNT
492,ST JAMES PHO,30 E 15TH ST,CHICAGO HEIGHTS,IL,60411,708-709-3996,11158
47,ST MARY OF NAZARETH PHO,2380 EAST DEMPSTER ST. 3RD FL,DES PLAINES,IL,60016,773-572-8300,36396
647,st marys HMO,P.O BOX 39,Downers Grove,IL,60515,,66727
556,St. Mary OF NAZARETH PHO 2,2380 EAST DEMPSTER ST. 3RD FL,DES PLAINES,IL,60016-4839,773-572-8300,36396
636,Staff Benefits Management,4858 Mercury St Suite 110,San Diego,CA,92111,877-952-7427,
631,Standard Life Accident Insurance Co,PO Box 16708,Jackson,MS,39236,,
102,Starmark,PO BOX 2942,Clinton,IA,527332942,800-522-1246,61425
135,STARMARK2,PO BOX 2942,CLINTON,IA,527332942,800-522-1246,61425
750,State Farm,P O Box 339403,Greeley,CO,80633-9403,866-855-1212,31053
292,State Farm,PO Box 3070,Newark,OH,43058,,31053
211,STUDENT RESOURCES,PO BOX 809025,DALLAS,TX,75380-9025,888-889-3813,74227
229,STUDENT RESOURCES 2,PO BOX 809025,DALLAS,TX,753809025,888-889-3813,74227
855,Surest,PO BOX 211758,Eagon,MN,55121-3758,844-368-6661,25463
856,Surest 2,PO BOX 211758,Eagon,MN,84130-3758,844-368-6661,25463
648,SWEDISH COVENANT MANAGED CARE,2740 W. Foster Ave,Chicago,IL,60625,773-271-0880,36411
595,SYMETRA SELECT BENEFITS,PO BOX 3245,MILWAUKEE,WI,53201,800-497-3699,37282
601,Symetra Select Benefits 2,P O BOX 3245,Milwaukee,WI,53201-3245,800-497-3699,37282
629,TeamCare USIN,PO BOX 21624,EAGAN,MN,55121-0601,,36215
372,TRANSAMERICA LIFE INS AND CO,PO BOX 310,GRAPEVINE,TX,76099-0310,866-975-4641,75261
272,TRANSAMERICA LIFE INSURANCE COMPANY,PO BOX 559017,AUSTIN,TX,78755-9001,866-868-4139,BOONG
230,TRAVELERS,P.O. BOX 3205,NAPERVILLE,IL,605667205,866-336-2077,1
657,TRICARE 2,PO BOX 7981,MADISON,WI,53707-7900,800-444-5445,TREST
637,TRICARE EAST,P.O BOX 7981,MADDISON,WI,53707,800-444-5445,68299
343,Tricare for Life,PO BOX 7890,Madison,WI,53707-7890,866-773-0404,SX176
31,TRICARE NORTH REGION,PO BOX 870140,SURFSIDE BEACH,SC,295879740,877-874-2273,57106
609,Tricare West,PO Box 202112,Florence,SC,99726,,12C01
253,TRIPLE-S PUERTO RICO BCBS,P O BOX 363628,SAN JUAN,PR,00936-3628,787-749-4700,
727,Trustmark 2,PO BOX 2942,Clinton,IA,52733,800-522-1246,61425
703,Trustmark Benefits,PO Box 2942,Clinton,IA,52733,800-522-1246,61425
743,Trustmark SB Benefits,PO BOX 2920,Clinton,IA,52733-2920,877-498-9907,35182
744,Trustmark SB Benefits2,PO BOX 2920,Clinton,IA,52733-2920,877-498-9907,35182
163,TUFTS Health Plan,PO BOX 9165,Watertown,MA,02471-9165,888-884-2404,4298
162,Tufts Health Plan 2,P O BOX 9165,Watertown,MA,02471-9165,888-884-2404,
77,UFCW LOCAL 1546,1649 W ADAMS ST,CHICAGO,IL,60612-3201,312-829-2156,SPRNT
552,UFCW Local 1546 Facility,1649 W ADAMS ST,CHICAGO,IL,60612-3201,312-829-2156,HPRNT
866,UHC ACUITY BRANDS,PO BOX 740800,ATLANTA,GA,303740800,877-842-3210,25463
863,UHC Choice Plus,PO BOX 740800,ATLANTA,GA,303740800,877-842-3210,87726
862,UHC Choice Plus2,PO BOX 740800,ATLANTA,GA,303740800,877-842-3210,87726
865,UHC CHRONIC COMPLETE ASSURE,PO BOX 30555,SALT LAKE CITY,UT,841300555,877-842-3210,87726
763,UHC GLOBAL,PO BOX 30526,SALT LAKE CITY,UT,84130-0526,800-382-9075,USN01
854,UHC Global 2,PO BOX 30526,SALT LAKE CITY,UT,84130-0628,800-382-9075,USN01
715,UHC MC Advantage 2,PO BOX 31362,Salt Lake City,UT,841310362,877-842-3210,87726
369,UHC MEDICARE Advantage PPO,PO BOX 31362,SALT LAKE CITY,UT,84131-0362,877-842-3210,87726
840,UHC Student Resources,PO BOX 809025,Dallas,TX,753809025,877-295-0720,74227
554,UHC STUDENT RESOURCES 2,PO BOX 809025,DALLAS,TX,753809025,877-295-0720,74227
834,UIPG,PO BOX 8030,WESTCHESTER,IL,60154,,UIC67
809,UIPG,PO BOX 8030,WESTCHESTER,IL,60154-8254,312-996-4374,UIC67
150,UMR,PO BOX 30541,SALT LAKE CITY,UT,841300541,800-557-5087,39026
152,UMR2,PO Box 30541,Salt Lake City,UT,841300541,800-557-5087,39026
243,UNICARE,P O BOX 4458,CHICAGO,IL,606800000,800-508-9355,SPRNT
575,UniCare PPO,PO BOX 9016,Andover,MA,01810-0916,800-442-9300,80314
576,Unicare PPO 2,PO BOX 9016,Andover,MA,01810-0916,800-442-9300,S0314
729,Unified Group Services,P O. BOX 10,Pendleton,IN,46064-0010,,35198
730,Unified Life Insurance Company,P O Box 25326,Overland Park,KS,66225-5326,800-237-4463,
305,Unified Physician Network,5215 OLD ORCHARD RD,Skokie,IL,60077,847-763-7237,34638
169,UNION HEALTH SERVICES,1634 W. Polk Street,CHICAGO,IL,60612,312-423-4200,SPRNT
314,UNITED AMERICAN INSURANCE CO.,3700 SOUTH STONEBRIDGE DRIVE,MCKINNEY,TX,75070,972-529-5085,99999
788,United Health Care,PO BOX 31386,SALT LAKE CITY,UT,84131,800-666-1353,87726
34,UNITED HEALTH CARE,PO BOX 30555,SALT LAKE CITY,UT,841300555,877-842-3210,87726
797,United Health Care,PO BOX 31394,SALT LAKE CITY,UT,841310394,877-797-8819,87726
127,UNITED HEALTH CARE 2,PO BOX 30555,Salt Lake City,UT,841300555,877-842-3210,87726
813,United Health Care 2,PO BOX 31394,SALT LAKE CITY,UT,84131-0406,877-842-3210,87726
830,United Health Care Choice,PO BOX 30884,Salt Lake City,UT,84130,877-842-3210,87726
831,United Health Care Choice 2,PO BOX 30884,Salt Lake City,UT,84130,877-842-3210,6111
734,United Health Care community plan,PO BOX 5230,Kingston,NY,12402-5230,800-905-8671,87726
742,United Health Care GA,PO BOX 740111,ATLANTA,GA,303740111,877-842-3210,87726
570,UNITED HEALTH CARE HMO CHARTER,PO BOX 31350,SALT LAKE CITY,UT,84131,877-842-3210,87726
507,UNITED HEALTH CARE NAVIGATE,PO BOX 30555,SALT LAKE CITY,UT,841300555,877-842-3210,87726
505,UNITED HEALTH CARE NAVIGATE GA,PO BOX 740800,ATLANTA,GA,303740800,877-842-3210,87726
170,United Health Care Oxford plan,PO BOX 29130,Hot Spring,AR,71903,800-666-1353,6111
171,United Health Care Oxford plan 2,PO BOX 29130,Hot Spring,AR,71903,800-666-1353,6111
395,UNITED HEALTH CARE STUDENT RESOURCES,PO BOX 809025,DALLAS,TX,75380-9025,888-224-4875,74227
311,UNITED HEALTHCARE,PO BOX 31350,SALT LAKE CITY,UT,84131,877-842-3210,87726
789,United Healthcare 2,PO BOX 31386,Salt Lake City,UT,84131,877-842-3210,6111
820,United Healthcare Choice Plus,PO BOX 740800,ATLANTA,GA,303740800,877-842-3210,87726
832,United Healthcare Choice Plus,PO BOX 740809,ATLANTA,GA,303740809,877-842-3210,87726
821,United Healthcare Choice Plus2,PO BOX 740800,ATLANTA,GA,303740800,877-842-3210,87726
196,UNITED HEALTHCARE GA,PO BOX 740800,ATLANTA,GA,303740800,877-842-3210,87726
232,UNITED HEALTHCARE GA 2,PO BOX 740800,ATLANTA,GA,303740800,877-842-3210,87726
762,United Healthcare HMO,P O BOX 5280,Kingston,NY,12402-5280,888-200-0325,87726
239,UNITED HEALTHCARE INTERNATIONAL,PO BOX 740372,ATLANTA,GA,303740372,877-563-9016,87726
240,UNITED HEALTHCARE INTERNATIONAL 2,PO BOX 740372,ATLANTA,GA,303740372,877-842-3210,87726
709,United Healthcare MC 2,PO BOX 31362,Salt Lake City,UT,84131,877-842-3210,87726
569,United Healthcare Medicare Advan 2,PO BOX 30995,SALT LAKE CITY,UT,84130-0363,877-842-3210,87726
454,United Healthcare Medicare Advantage,PO BOX 30995,SALT LAKE CITY,UT,84130-0363,877-842-3210,87726
653,UNITED HEALTHCARE Medicare PPO,PO BOX 31362,SALT LAKE CITY,UT,84131,877-842-3210,87726
871,UNITED HEALTHCARE NEXUSACO OA,PO BOX 740800,ATLANTA,GA,30374-0800,,87726
667,United HealthCare Shared Services GEHA,PO BOX 30783,SALT LAKE CITY,UT,84130-0749,800-821-6136,39026
567,UNITED HEALTHCARE STUDENT RESOURCES 2,PO BOX 809025,DALLAS,TX,75380-9025,888-224-4875,74227
799,United Healtthcare International 2,PO BOX 740372,ATLANTA,GA,303740372,877-563-9016,87726
430,United National Insurance Group,P O BOX 389447,CHICAGO,IL,60638-9447,866-466-5374,74227
431,United National Insurance Group 2,PO BOX 389447,CHICAGO,IL,60638-9447,866-466-5374,SPRNT
350,UNITED WORLD INS Mutual of Omaha,3316 FARNAM STREET,Omaha,NE,68175,,71412
642,United World Life Insurance Company,3316 Farnam St,Omaha,NE,68175-0001,877-617-5587,
735,Unitedhealthcare Choice Plus,PO BOX 30541,SALT LAKE CITY,UT,841300541,866-745-8744,39026
571,UnitedHealthcare Choice Plus,PO BOX 30985,SALT LAKE CITY,UT,841300985,877-842-3210,87726
798,UnitedHealthCare Choice Plus2,PO BOX 30985,Salt Lake City,UT,841300985,877-842-3210,87726
822,UnitedHealthcare Core,PO BOX 740800,ATLANTA,GA,303740800,877-842-3210,87726
823,UnitedHealthCare Core2,PO BOX 740800,ATLANTA,GA,303740800,877-842-3210,87726
795,UnitedHealthcare GA,PO BOX 740372,ATLANTA,GA,303740372,877-842-3210,87726
796,UnitedHealthcare GA2,PO BOX 740372,ATLANTA,GA,303740372,877-842-3210,EN826
773,UNITEDHEALTHCARE HMO Plan Name Il Esi Gold 3,PO BOX 5230,KINGSTON,NY,12402-5290,888-478-4760,87726
679,UnitedHealthCare SHARED SERVICE,PO BOX 30783,SALT LAKE CITY,UT,84130-0783,800-693-5254,39026
680,UnitedHealthCare SHARED SERVICE 2,PO BOX 30783,SALT LAKE CITY,UT,84130-0783,800-693-5254,39026
714,Univ of III Campus Care,PO BOX 8030,Westchester,IL,60154,312-996-4915,
581,Universal Assistance,1200 BRICKELL AVE,MIAMI,FL,33131-3373,305-590-8829,
833,unknown,,,,,,
758,UPMC Health Plan,PO BOX 2999,PITTSBURGH,PA,15230-2999,866-328-8762,23281
772,UPMC HEALTH PLAN 2,PO BOX 2999,PITTSBURGH,PA,15230-2999,866-328-8762,23281
120,UPREHS,PO BOX 161020,SALT LAKE CITY,UT,84116-1020,800-547-0421,87042
666,USAA AUTO INSURANCE SOLUTION,ATTENTION USAA MEDICAL MAIL DEPARTMENT,daphne,AL,36526,800-531-8111,74095
671,USAA Auto Insurance Solution 2,PO BOX 5000,Daphne,AL,36526,800-531-8111,74095
280,USAA Life Insurance Company,PO BOX 12750,Pensacola,FL,32591-2750,877-429-9571,J2085
754,VA Community Care Network,PO BOX 202117,FLORENCE,SC,29502-2119,884-839-6108,VACCN
596,VA FEE FOR BASIS,136E 820 SOUTH DAMEN AVE,CHICAGO,IL,60612,312-569-8387,SPRNT
751,VILLAGEMD of Chicago,1639 N ALPINE RD,ROCKFORD,IL,61107,800-865-0093,36364
602,walgreens,1010 MAPLE AVe,Lisle,il,60532,,
426,WEB/TPA,PO BOX 99906,GRAPEVINE,TX,76099-9705,800-952-7420,75261
805,WEBTPA 2,PO BOX 99906,Grapevine,TX,76099-9706,800-981-7405,75261
490,WELFARE FUND,600 N INDUSTRIAL DR SUIT 100,ELMHURST,IL,60126,630-617-8666,SPRNT
708,Wellcare Advocate MC,PO BOX 0838,MT PROSPECT,IL,60056,847-298-6000,36320
138,WELLCARE AHC,PO BOX 0598,MT PROSPECT,IL,600560598,847-298-6000,36320
144,Wellcare Health Plan Inc,PO BOX 31372,Tampa,FL,336313372,866-334-6876,14163
368,Wellcare Health Plans Inc 2,PO BOX 31372,TAMPA,FL,33631-3372,877-902-6784,S4163
220,Wellcare HMO,PO BOX 25885,Tampa,FL,33622,866-334-6876,14163
608,Wellcare HMO ADVOCATE Health Partners,PO BOX 838,MOUNT PROSPECT,IL,60056-0896,847-298-6000,36320
787,Wellfleet,PO BOX 15369,Springfield,MA,01115-1536,855-664-5837,87843
741,Wellspan Population Health Services,PO Box 2347,York,PA,17405,800-842-1768,23266
745,WellSpan Population Health2,PO BOX 2347,York,PA,17405,800-842-1768,23266
174,West Suburban Health Providers,PO Box 9237,Oak Brook,IL,60522-9237,708-783-7100,SPRNT
573,West Suburban Health Providers,3 ERIE CT,OAK PARK,IL,60302-2519,410-972-2028,80942
290,Western and Southern Financial Group,PO BOX 5735,CINCINNATI,OH,45201-5685,866-295-6879,31048
291,Western and Southern Financial Grp 2,PO BOX 5735,CINCINNATI,OH,45201-5685,800-033-3145,E1048
652,Western United Life,PO BOX 924408,HOUSTON,TX,77292-4408,800-877-7703,SPRNT
143,Winston Manor Nursing Home,Attn Administrator Dept,Chicago,IL,60622,773-252-2066,SPRNT
35,WORLD INSURANCE COMPANY,PO BOX 2558,OMAHA,NE,681030160,800-786-7557,75276
501,WPS Health Insurance,PO BOX 8190,Madison,WI,53708-8190,800-765-4977,6302
701,Youth Care Health Plan,PO BOX 4020,FARMINGTON,MO,63640,844-289-2264,42139
482,zzZDoNotUSEMERIDIAN HEALTH PLAN INC VMC,1 CAMPUS MARTIUS SUITE 720,DETROIT,MI,48226,866-606-3700,13189
345,zzzPA/MEDICAID,Department of Human Services,Harrisburg,PA,17105,,
349,zzzzBaxter Health Care Management,P.O. Box 4020,Farmington,MO,63640-4402,866-329-4701,68069
342,zzzzBEACON HEALTH STRATEGIES,500 UNICORN PARK DR,WOBURN,MA,01801-3377,888-249-0478,96075
90,zzzzBEECH STREET PPO,PO BOX 8190 WPS CLAIMS,MADISON,WI,537088190,800-221-7006,SPRNT
474,zzZZDoNotUseMERIDIAN HEALTH PLAN MMAI SEC,1 CAMPUS MARTIUS SUITE 720,DETROIT,MI,48226,866-606-3700,13189
473,ZZzzDONotUSEMERIDIAN HEALTH PLAN MMP,1 CAMPUS MARTIUS SUITE 720,DETROIT,MI,48226,866-606-3700,13189
276,ZZzzDONOTUSEMERIDIAN Plan,1 CAMPUS MARTIUS,DETROIT,MI,48226-5012,866-606-3700,13189
258,zzzzHEALTH ALLIANCE PLAN,PO BOX 4020,FARMINGTON,MO,63640-3800,866-329-4701,68069
344,zzzzHealth Spring,PO BOX 981804,EL PASO,TX,79998-1804,,
156,zzzzNorrage Garden,7001 w cullom,norrige,IL,60706,,NHSALU510001
193,zzzzPrimecare West Town,1908 Solution Cntr,Chicago,IL,60677,312-633-5841,
347,zzzzRite Aid Pharmacy,810-814 South Broad St,Philadelphia,PA,19146,,
37,zzzzRUSH PRUDENTIAL HMO,CLAIMS DEPARTMENT,CHICAGO,IL,606096309,,36389
205,zzzztest,,,,,,
204,zzzzTEST INS NO 21,P O BOX 71245,LONDON,KY,40742,800-627-4872,25133
32,zzzzTRUSTMARK,P O BOX 7914,LAKE FOREST,IL,600457914,800-285-7911,61425
561,ZZZZZDo Not USe Not Setup CorrectlyCounty Care Health Plan 2,PO BOX 211592,Eagan,MN,55121-2892,312-864-8200,6541
257,ZZZZZZCOOK COUNTY CARE,PO BOX 4020,FARMINGTON,MO,63640-3800,855-444-1661,6541
483,ZZZZZZZZDO NOT USE MERIDIAN HEALTH PLAN ICP,1 CAMPUS MARTIUS SUITE 720,DETROIT,MI,48226,866-606-3700,13189
479,ZZZZZZZZZZZZDO NOT USEAETNA BETTER HEALTH INC ICP,PO BOX 66545,PHOENIX,AZ,850826545,866-329-4701,68024